NORAD_CAT_ID,OBJECT_NAME,OBJECT_TYPE,EPOCH,MEAN_MOTION,ECCENTRICITY,INCLINATION,RA_OF_ASC_NODE,ARG_OF_PERICENTER,MEAN_ANOMALY,BSTAR,MEAN_MOTION_DOT,MEAN_MOTION_DDOT,TLE_LINE0,TLE_LINE1,TLE_LINE2,SEMIMAJOR_AXIS,PERIOD,APOGEE,PERIGEE,DECAYED
51811.0,STARLINK-3569,PAYLOAD,2024-08-10 17:41:18,15.08850537,0.000123,53.2176,44.677,107.6478,252.4649,0.00010816,1.434e-05,0.0,0 STARLINK-3569,1 51811U 22017AV  24223.73701927  .00001434  00000-0  10816-3 0  9998,2 51811  53.2176  44.6770 0001230 107.6478 252.4649 15.08850537137015,6917.848,95.437,540.564,538.862,0.0
51811.0,STARLINK-3569,PAYLOAD,2024-08-11 12:45:56,15.08837677,0.0001598,53.2182,41.1099,99.067,261.0503,-1.5637e-05,-5.37e-06,0.0,0 STARLINK-3569,1 51811U 22017AV  24224.53190615 -.00000537  00000-0 -15637-4 0  9995,2 51811  53.2182  41.1099 0001598  99.0670 261.0503 15.08837677137232,6917.887,95.438,540.858,538.647,0.0
51811.0,STARLINK-3569,PAYLOAD,2024-08-11 20:42:51,15.08852816,0.000191,53.2185,39.6257,106.9618,253.1584,0.00031574,4.742e-05,0.0,0 STARLINK-3569,1 51811U 22017AV  24224.86310124  .00004742  00000-0  31574-3 0  9997,2 51811  53.2185  39.6257 0001910 106.9618 253.1584 15.08852816137289,6917.841,95.437,541.028,538.385,0.0
51811.0,STARLINK-3569,PAYLOAD,2024-08-12 04:39:48,15.08834296,0.0003918,53.2172,38.1307,82.856,277.2877,0.00010659,1.408e-05,0.0,0 STARLINK-3569,1 51811U 22017AV  24225.19431538  .00001408  00000-0  10659-3 0  9994,2 51811  53.2172  38.1307 0003918  82.8560 277.2877 15.08834296137333,6917.898,95.438,542.473,537.052,0.0
51811.0,STARLINK-3569,PAYLOAD,2024-08-12 12:36:43,15.08844235,0.0001014,53.2158,36.6473,93.0513,267.0595,0.00013645,1.885e-05,0.0,0 STARLINK-3569,1 51811U 22017AV  24225.52550097  .00001885  00000-0  13645-3 0  9990,2 51811  53.2158  36.6473 0001014  93.0513 267.0595 15.08844235137384,6917.867,95.437,540.434,539.031,0.0
51811.0,STARLINK-3569,PAYLOAD,2024-08-12 20:33:37,15.08878697,0.000117,53.216,35.1576,100.7171,259.3953,0.00089016,0.00013922,0.0,0 STARLINK-3569,1 51811U 22017AV  24225.85668807  .00013922  00000-0  89016-3 0  9995,2 51811  53.2160  35.1576 0001170 100.7171 259.3953 15.08878697137330,6917.762,95.435,540.436,538.818,0.0
51811.0,STARLINK-3569,PAYLOAD,2024-08-13 10:52:07,15.08840515,0.0002346,53.2177,32.4854,77.1952,282.9302,-3.0608e-05,-7.76e-06,0.0,0 STARLINK-3569,1 51811U 22017AV  24226.45286140 -.00000776  00000-0 -30608-4 0  9997,2 51811  53.2177  32.4854 0002346  77.1952 282.9302 15.08840515137425,6917.879,95.438,541.367,538.121,0.0
51811.0,STARLINK-3569,PAYLOAD,2024-08-13 20:24:26,15.08831007,0.000192,53.2157,30.6999,94.2579,265.8633,-0.00017673,-3.099e-05,0.0,0 STARLINK-3569,1 51811U 22017AV  24226.85030573 -.00003099  00000-0 -17673-3 0  9995,2 51811  53.2157  30.6999 0001920  94.2579 265.8633 15.08831007137585,6917.908,95.438,541.101,538.445,0.0
51811.0,STARLINK-3569,PAYLOAD,2024-08-14 04:21:22,15.08832577,0.0001303,53.2169,29.2139,75.8151,284.2986,-2.0533e-05,-6.15e-06,0.0,0 STARLINK-3569,1 51811U 22017AV  24227.18150602 -.00000615  00000-0 -20533-4 0  9999,2 51811  53.2169  29.2139 0001303  75.8151 284.2986 15.08832577137538,6917.903,95.438,540.669,538.867,0.0
51811.0,STARLINK-3569,PAYLOAD,2024-08-14 17:04:27,15.08836451,0.0001196,53.2141,26.8326,76.3742,283.7383,0.00015763,2.221e-05,0.0,0 STARLINK-3569,1 51811U 22017AV  24227.71142710  .00002221  00000-0  15763-3 0  9990,2 51811  53.2141  26.8326 0001196  76.3742 283.7383 15.08836451137711,6917.891,95.438,540.584,538.929,0.0
51811.0,STARLINK-3569,PAYLOAD,2024-08-15 04:12:09,15.08839742,0.0001328,53.2165,24.7501,81.8217,278.2926,0.00034456,5.2e-05,0.0,0 STARLINK-3569,1 51811U 22017AV  24228.17510946  .00005200  00000-0  34456-3 0  9991,2 51811  53.2165  24.7501 0001328  81.8217 278.2926 15.08839742137688,6917.881,95.438,540.665,538.827,0.0
51811.0,STARLINK-3569,PAYLOAD,2024-08-15 18:30:37,15.08841278,0.0001254,53.2171,22.0745,79.9309,280.1824,0.00028904,4.315e-05,0.0,0 STARLINK-3569,1 51811U 22017AV  24228.77127054  .00004315  00000-0  28904-3 0  9998,2 51811  53.2171  22.0745 0001254  79.9309 280.1824 15.08841278137871,6917.876,95.437,540.609,538.874,0.0
51811.0,STARLINK-3569,PAYLOAD,2024-08-16 19:56:47,15.08843632,0.0001305,53.2175,17.3179,79.2704,280.8435,0.00016899,2.403e-05,0.0,0 STARLINK-3569,1 51811U 22017AV  24229.83111040  .00002403  00000-0  16899-3 0  9990,2 51811  53.2175  17.3179 0001305  79.2704 280.8435 15.08843632138032,6917.869,95.437,540.637,538.832,0.0
51811.0,STARLINK-3569,PAYLOAD,2024-08-17 19:47:35,15.08832606,0.0001306,53.2168,12.8568,74.748,285.3656,-2.7939e-06,-3.32e-06,0.0,0 STARLINK-3569,1 51811U 22017AV  24230.82471807 -.00000332  00000-0 -27939-5 0  9991,2 51811  53.2168  12.8568 0001306  74.7480 285.3656 15.08832606138188,6917.903,95.438,540.671,538.865,0.0
51811.0,STARLINK-3569,PAYLOAD,2024-08-18 14:52:12,15.08853988,0.0001297,53.2188,9.2906,85.293,274.821,0.0004263,6.506e-05,0.0,0 STARLINK-3569,1 51811U 22017AV  24231.61958648  .00006506  00000-0  42630-3 0  9992,2 51811  53.2188   9.2906 0001297  85.2930 274.8210 15.08853988138301,6917.838,95.437,540.6,538.805,0.0
51811.0,STARLINK-3569,PAYLOAD,2024-08-19 19:29:11,15.08823816,0.0001716,53.218,3.9348,78.4777,281.6407,-0.00018567,-3.24e-05,0.0,0 STARLINK-3569,1 51811U 22017AV  24232.81193513 -.00003240  00000-0 -18567-3 0  9993,2 51811  53.2180   3.9348 0001716  78.4777 281.6407 15.08823816138483,6917.93,95.439,540.982,538.608,0.0
51811.0,STARLINK-3569,PAYLOAD,2024-08-20 14:33:46,15.08862167,0.0001347,53.2189,0.3711,89.7012,270.4134,0.00028523,4.257e-05,0.0,0 STARLINK-3569,1 51811U 22017AV  24233.60678875  .00004257  00000-0  28523-3 0  9990,2 51811  53.2189   0.3711 0001347  89.7012 270.4134 15.08862167138502,6917.813,95.436,540.609,538.746,0.0
51811.0,STARLINK-3569,PAYLOAD,2024-08-20 17:44:32,15.0886618,0.000129,53.218,359.7736,66.323,293.7897,0.00035476,5.367e-05,0.0,0 STARLINK-3569,1 51811U 22017AV  24233.73926605  .00005367  00000-0  35476-3 0  9999,2 51811  53.2180 359.7736 0001290  66.3230 293.7897 15.08866180138627,6917.8,95.436,540.558,538.773,0.0
51811.0,STARLINK-3569,PAYLOAD,2024-08-21 12:49:12,15.08838363,0.0001959,53.2183,356.209,36.3359,323.7765,-0.00011436,-2.108e-05,0.0,0 STARLINK-3569,1 51811U 22017AV  24234.53416927 -.00002108  00000-0 -11436-3 0  9991,2 51811  53.2183 356.2090 0001959  36.3359 323.7765 15.08838363138749,6917.885,95.438,541.106,538.395,0.0
51811.0,STARLINK-3569,PAYLOAD,2024-08-21 14:24:35,15.08841836,0.0002377,53.2182,355.9119,44.0167,316.1014,-6.3483e-05,-1.299e-05,0.0,0 STARLINK-3569,1 51811U 22017AV  24234.60040918 -.00001299  00000-0 -63483-4 0  9992,2 51811  53.2182 355.9119 0002377  44.0167 316.1014 15.08841836138656,6917.875,95.437,541.384,538.095,0.0
51811.0,STARLINK-3569,PAYLOAD,2024-08-21 15:59:57,15.08853643,0.0001529,53.218,355.6144,60.2398,299.8747,0.0001095,1.456e-05,0.0,0 STARLINK-3569,1 51811U 22017AV  24234.66664114  .00001456  00000-0  10950-3 0  9991,2 51811  53.2180 355.6144 0001529  60.2398 299.8747 15.08853643138764,6917.839,95.437,540.761,538.646,0.0
